SOYUZ-MS 28             
1 66664U 25275A   25348.21787239  .00012052  00000+0  22198-3 0  9994
2 66664  51.6305 135.1599 0003264 246.9077 113.1568 15.49586484  1283
1998-067XS              
1 66906U 98067XS  25348.14714248  .00029210  00000+0  50587-3 0  9991
2 66906  51.6304 135.4381 0003479 209.6903 150.3889 15.50662380  1837
1998-067XT              
1 66907U 98067XT  25348.14356029  .00068696  00000+0  11320-2 0  9993
2 66907  51.6301 135.4146 0004243 234.9835 125.0757 15.51665530  1833
1998-067XU              
1 66908U 98067XU  25348.14315494  .00076995  00000+0  12623-2 0  9993
2 66908  51.6297 135.4117 0004336 234.6858 125.3727 15.51757064  1835
SILVERSAT               
1 66909U 98067XV  25347.82070451  .00075840  00000+0  12407-2 0  9997
2 66909  51.6299 137.0079 0004332 234.1355 125.9233 15.51822369  1789
1998-067XW              
1 66910U 98067XW  25348.14109513  .00066221  00000+0  10799-2 0  9992
2 66910  51.6295 135.3982 0004958 216.2881 143.7773 15.51967036  1834
1998-067XX              
1 66911U 98067XX  25348.14013395  .00079628  00000+0  12814-2 0  9990
2 66911  51.6298 135.3916 0004664 217.9466 142.1196 15.52259497  1823
1998-067XY              
1 66912U 98067XY  25348.14482429  .00054792  00000+0  91762-3 0  9994
2 66912  51.6302 135.4229 0004393 231.7260 128.3335 15.51307028  1827
